Distributor Name,Address,City,State,Zip,Phone,28 oz Sprk,28 oz Spr,12 oz Sprk,12 oz Spr
Republic National Dist Deerfield,441 SW 12th Ave,Deerfield Beach,FL,33442-3109,(954) 421-9990,X,X,X,X
Wine Warehouse Distributors,6550 E Washington Blvd,Commerce,CA,90040-1822,(800) 331-2829,X,X,X,X
Wine Warehouse Distributors,912 Harbour Way S,Richmond,CA,94804-3615,(510) 236-2233,X,X,X,X
Republic National Distr Co ,700 W Morris St,Indianapolis,IN,46225-1447,(317) 636-6092,X,X,X,X
Republic National Dist Tampa,4901 Savarese Cir,Tampa,FL,33634-2413,(813) 885-3200,X,X,X,X
Big Geyser ,5765 48th St,Maspeth,NY,11378-2015,(718) 821-2200,X,X,X,X
National Dist Atlanta,1 National Dr SW,Atlanta,GA,30336-1631,(404) 696-9440,X,X,X,X
 Horizon Beverage Co Inc ,45 Commerce Way,Norton,MA,02766-3313,(508) 587-1110,X,X,X,X
United Liquors Ltd DC,200 Charles F Colton Rd,Taunton,MA,02780-7379,(781) 348-8000,X,X,X,X
United Liquors Ltd DC,100 Charles F Colton Rd,Taunton,MA,02780-0001,(781) 348-8000,X,X,X,X
McMahons Farm Inc,305 Jackson Rd,Hopewell Junction,NY,12533-8615,(845) 227-0120,X,X,X,X
High Grade Beverage,891 Georges Rd,Monmouth Junction,NJ,08852,(732) 821-7600,X,X,X,X
Farrell Distribution Corp,5 Holmes Rd,South Burlington,VT,05403-7706,(802) 864-4422,X,X,X,X
Farrell Distribution Corp,155 Seward Rd,Rutland,VT,05701-4895,(802) 775-2391,X,X,X,X
Farrell Distribution Corp,200 Farrell Rd,Rutland,VT,05701-4727,(802) 775-2391,X,X,X,X
Connecticut Distributors,333 Lordship Blvd,Stratford,CT,06615-7120,(203) 377-1440,X,X,X,X
Northeast Beverage Corp,1202 Jefferson Blvd,Warwick,RI,02886-2204,(401) 739-3189,X,X,X,X
Republic National Dist Jacksonville ,9423 N Main St,Jacksonville,FL,32218-5749,(904) 714-7200,X,X,X,X
Saratoga Eagle Sales & Service Inc,2085 Lake Rd,Elmira,NY,14903-1856,(518) 581-7377,X,X,X,X
Saratoga Eagle,45 Duplainville Rd,Saratoga Springs,NY,12866-9044,(518) 581-7377,X,X,X,X
Seneca Beverage Corp,2085 Lake Rd,Elmira,NY,14903-1856,(607) 734-6111,X,X,X,X
Craft Brewers Guild,170 Market St,Everett,MA,02149-5808,(617) 410-3900,X,X,X,X
McCraith Beverages Inc,20 Burrstone Rd,New York Mills,NY,13417-1508,(315) 768-2337,X,X,X,X
Republic National Dist Columb,410 Foster Brothers Dr,West Columbia,SC,29172-2763,(803) 739-0188,X,X,X,X
Fedway Associates Inc,20 North Ave E,Elizabeth,NJ,07201-2959,(973) 624-6444,X,X,X,X
Dutchess Beer Distributing Co ,36 Keifer Ln,Kingston,NY,12401-2209,(845) 338-7875,X,X,X,X
D Bertoline & Sons Inc ,7 John Walsh Blvd,Peekskill,NY,10566-5324,(914) 737-0266,X,X,X,X
 Gasko & Meyer Inc,6636 State Route 52,Lake Huntington,NY,12752-5039,(845) 932-8424,X,X,X,X
Pine State Beverage Co,100 Enterprise Ave,Gardiner,ME,04345-6249,(800) 452-4633,X,X,X,X
B&E Juice ,550 Knowlton St,Bridgeport,CT,06608-1816,(203) 333-1802,X,X,X,X
Republic National Dist Jessup,8201 Stayton Dr,Jessup,MD,20794-9633,(410) 724-3300,X,X,X,X
Kohler Distributing Company ,150 Wagaraw Rd,Hawthorne,NJ,07506-2706,(973) 423-2307,X,X,X,X
Paul W Marks,8 Commercial St,Everett,MA,02149-5507,(617) 389-4120,X,X,X,X
Virginia Imports Ltd,7550 Accotink Park Rd,Springfield,VA,22150-3644,(703) 823-1230,X,X,X,X
CLW Distributors Inc ,110 Schmitt Blvd,Farmingdale,NY,11735-1424,(631) 815-5290,X,X,X,X
Paleewong Trading Co Inc ,6204 34th Ave,Woodside,NY,11377-2229,(718) 507-6520,X,X,X,X
Esber Beverages,2217 Bolivar Rd SW,Canton,OH,44706-3056,(800) 372-3726,X,X,X,X
Seaview Beverage Inc,"195 Lehigh Ave, Ste 10",Lakewood,NJ,08701-4555,(732) 901-9777,X,X,X,X
Breakthru Beverage Illinois ,3333 S Laramie Ave,Cicero,IL,60804-4520,(708) 298-3333,X,X,X,X
Heidelberg Midwest,1518 Dalton Ave,Cincinnati,OH,45214-2018,(513) 421-5000,X,X,X,X
BIRITE Foodservice Distributors,123 South Hill Drive,Brisbane,CA,94005,(415 )656-0187,X,X,X,X
Chefs Warehouse,7477 CANDLEWOOD RD,Hanover,MD,21076-3102,(410) 850-5030,X,X,X,X
Thurston Foods Inc,30 THURSTON DR,Wallingford,CT,06492-2454,(203) 265-1525,X,X,X,X
BNEC Sysco Metro New York LLC,20 THEODORE CONRAD DR,Jersey City,NJ,07305-4614,(201) 433-2000,X,X,X,X
Ben E Keith Foods,7650 WILL ROGERS BLVD,Fort Worth,TX,76140-6022,(817)759-6000,X,X,X,X
SKI Beer,169 GARDNER AVE,Brooklyn,NY,11237-1109,(718) 821-7200,X,X,X,X
Julius Silvert Inc,231 E LUZERNE ST,Philadelphia,PA,19124-4219,(215) 455-1600,X,X,X,X
Ben E Keith Foods DC,14200 N SANTA FE AVE,Edmond,OK,73013-2473,(405)753-7600,X,X,X,X
PFG Florida,3150 GALLAGHER RD,Dover,FL,33527-4730,(813) 659-0811,X,X,X,X
Sysco Albany LLC,1 LIEBICH LN,Clifton Park,NY,12065-1421, (518) 877-3200,X,X,X,X
Performance Food Group Springfield,1 PERFORMANCE BLVD,Springfield,MA,01104-3238,(413) 733-3053,X,X,X,X
Ace Endico Corp,80 INTERNATIONAL BLVD,Brewster,NY,10509-2344,(845) 940-1501,X,X,X,X
PFG Metro NY Elizabeth Nj,1 IKEA DR,Elizabeth,NJ,07201-2967,(800) 275-9500,X,X,X,X
Cheney Brothers 460,1 CHENEY WAY,Riviera Beach,FL,33404-7000, (800) 432-1341,X,X,X,X
US Foods,1685 W CHEYENNE AVE,North Las Vegas,NV,89032-7764,(702)636-3663,X,X,X,X
PFG North Center Augusta Me,20 DALTON RD,Augusta,ME,04330-8326,(877) 564-8081,X,X,X,X
Sysco Baltimore Washington,8000 DORSEY RUN RD,Jessup,MD,20794-9482,(410) 799-7000,X,X,X,X
Cheney Bros Inc,2801 W SILVER SPRINGS BLVD,Ocala,FL,34475-5655,(800) 939-4018,X,X,X,X
US  Foods,755 PIERCE RD,Clifton Park,NY,12065-1302,(518) 877-8511,X,X,X,X
Chefs Warehouse Philadelphia,200 EAGLE CT,Swedesboro,NJ,08085-1799,(856)294-6600,X,X,X,X
US Foods,1051 AMBOY AVE,Perth Amboy,NJ,08861-1919,(800) 222-1278,X,X,X,X
Baldor Specialy Foods Inc,155 FOOD CENTER DR,Bronx,NY,10474-7048,(718) 860-9100,X,X,X,X
Euro USA Inc,4481 JOHNSTON PKWY,Cleveland,OH,44128-2952,(800) 999-5939,X,X,X,X
Sysco Long Island Ny,199 LOWELL AVE,Central Islip,NY,11722-3863,(631) 342-7400,X,X,X,X
Sysco Boston Ma,99 SPRING ST,Plympton,MA,02367-1701,(781) 422-2300,X,X,X,X
Chefs Warehouse,240 FOOD CENTER DR,Bronx,NY,10474-7045,(718) 842-8700,X,X,X,X
Gordon Food Service DC,630 JOHN HANCOCK RD,Taunton,MA,02780-7380,(508) 824-2800,X,X,X,X
European Imports,600 E BROOK DR,Arlington Heights,IL,60005-4691,(847) 631-6000,X,X,X,X
Palmer Foodservice,171 WEIDNER RD,Rochester,NY,14624-5133,(585) 424-3210,X,X,X,X
Performance Foodservice Burlington,32 THOMPSON DR,Essex Junction,VT,05452-3405,(802) 288-5000,X,X,X,X
US Foods,100 LEDGE RD,Seabrook,NH,03874-4322,(603) 394-2500,X,X,X,X
Cheney Bros Inc,1 CHENEY WAY,Punta Gorda,FL,33982-4401,(941) 505-5885,X,X,X,X
Cheney Brothers,195 BUSINESS PARK DR,Statesville,NC,28677-9133,(800) 899-3921,X,X,X,X
The Chefs Warehouse Midwest LLC,2801 S WESTERN AVE,Chicago,IL,60608-5213,(888) 333-0318,X,X,X,X
Driscoll Food Service Wayne,6 WESTBELT,Wayne,NJ,07470-6808, (877) 593-6637,X,X,X,X
European Imports C/O Central Whse,1000 BAUGH DR,Front Royal,VA,22630-6700,(540) 631-2300,X,X,X,X
Coastal Sunbelt Produce,9001 WHISKEY BOTTOM RD,Laurel,MD,20723-1356,(410) 799-8000,X,X,X,X
Baldor Boston LLC,130 EASTERN AVE,Chelsea,MA,02150-3353,(617) 889-0047,X,X,X,X
Reinhart Foodservice,32 THOMPSON DR,Essex Junction,VT,05452-3405,(802) 288-5000,X,X,X,X
Marvel Produce,707 EXECUTIVE BLVD,Valley Cottage,NY,10989-2020,(845) 767-5280,X,X,X,X
Keany Produce,3333 75TH AVE,Hyattsville,MD,20785-1509, (301) 772-3333,X,X,X,X
Paleewong Trading Co Inc,6204 34TH AVE,Woodside,NY,11377-2229,(718) 507-6520,X,X,X,X
Hudson Valley Harvest,1931 ROUTE 9,Germantown,NY,12526-5515, (800) 811-3795,X,X,X,X
Dunkleys Dairy,103 TILBURY RD,Salem,NJ,08079-1521,(441)292-1310,X,X,X,X
Regional Access Inc,1609 TRUMANSBURG RD,Ithaca,NY,14850-9213,(607) 319-5150,X,X,X,X
Odeko Charlotte,"3800 WOODPARK BLVD, Ste L",Charlotte,NC,28206-4227,(631) 815-5290,X,X,X,X
BTB Food Service Inc,2676 NW 29th Terrace,Lauderdale Lakes ,FL,33311,(727) 755-3077,X,X,X,X
Atlantic International Products,1301 BROAD ST,Utica,NY,13501-1605,(315) 738-4370,X,X,X,X
To Life Water Corp,21 MIDTOWN CIR,Lakewood,NJ,08701-7604,(718) 871-3310,X,X,X,X
Odeko NJ,125 STATE ST,Moonachie,NJ,07074-1402,(631) 815-5290,X,X,X,X
Dairyland Produce LLC,"PURCHASE ST, Unit 1",New Bedford,MA,02746-1686,(508) 999-6408,X,X,X,X
 SYSCO - ALBANY     ,1 LIEBICH LN,Clifton Park,NY,12065-1421, (518) 877-3200,X,,,
 SYSCO - ARKANSAS   ,5700 W 65TH ST,Little Rock,AR,72209-3828,(501)562-4111,X,,,X
 SYSCO - ATLANTA    ,2225 RIVERDALE RD,College Park,GA,30337-5111,(404) 765-9900,X,X,,
 SYSCO - BALTIMORE  ,8000 DORSEY RUN RD,Jessup,MD,20794-9482,(410) 799-7000,,,X,
 SYSCO - BARABOO    ,910 SOUTH BLVD,Baraboo,WI,53913-2723,(608)356-8711,X,,,X
 SYSCO - BOSTON     ,99 SPRING ST,Plympton,MA,02367-1701,(781) 422-2300,,X,X,X
 SYSCO - CENTRAL ALA,1000 SYSCO DR,Calera,AL,35040-4992,(205)668-0001,,,X,
 SYSCO - CENTRAL CAL,136 MARIPOSA RD,Modesto,CA,95354-4122,(209)527-7700,,X,,
 SYSCO - CENTRAL FLO,200 W STORY RD,Ocoee,FL,34761-3004,(407) 877-8500,X,X,X,X
 SYSCO - CENTRAL TEX,1260 SCHWAB RD,New Braunfels,TX,78132-5155,(830)730-1000,X,,,X
 SYSCO - CENTRL PENN,3905 COREY RD,Harrisburg,PA,17109-5930,(717) 561-4000,,,X,X
 SYSCO - CHARLOTTE  ,4500 CORPORATE DR NW,Concord,NC,28027-9603,(704) 786-4500,X,,X,X
 SYSCO - CHICAGO    ,250 WIEBOLDT DR,Des Plaines,IL,60016-3100,(847) 699-5400,X,X,,
 SYSCO - CLEVELAND  ,19300 Cleveland Pkwy Dr,Cleveland,OH,44135-3231, (800) 786-2100,X,X,X,
 SYSCO - COLUMBIA   ,131 SYSCO CT,Columbia,SC,29209-5143,(803) 239-4000,,,X,X
 SYSCO - CONNECTICUT,100 INWOOD RD,Rocky Hill,CT,06067-3434,(860) 571-5600,X,X,,X
 SYSCO - DENVER     ,5000 BEELER ST,Denver,CO,80238-2975,(303)585-2000,X,X,X,
 SYSCO - DETROIT    ,41600 VAN BORN RD,Canton,MI,48188-2746,(734) 397-7990,X,X,,X
 SYSCO - EAST TEXAS ,4577 ESTES PKWY,Longview,TX,75603-0900,(903)252-6100,,,,X
 SYSCO - EAST WISCON,1 SYSCO DR,Jackson,WI,53037-9226,(262)677-1100,X,X,,X
 SYSCO - EASTERN MARYLAND,33239 COSTEN RD,Pocomoke City,MD,21851-3909,(410) 677-5555,X,X,,X
 SYSCO - GULF COAST ,2001 W MAGNOLIA AVE,Geneva,AL,36340-1209,(334)684-4000,,,X,
 SYSCO - HAMPTON ROADS,7000 HARBOUR VIEW BLVD,Suffolk ,VA,23435-2756,(757) 673-4000,X,X,,
 SYSCO - HOUSTON    ,10710 GREENS CROSSING BLVD,Houston,TX,77038-2716,(713) 672-8080,X,X,,X
 SYSCO - IDAHO      ,5710 PAN AM AVE,Boise,ID,83716-9612,(208)345-9500,X,X,,
 SYSCO - INDIANAPOLI,4000 W 62ND ST,Indianapolis,IN,46268-2518,(317) 291-2020,,,X,X
 SYSCO - IOWA       ,1 SYSCO DR,Ankeny,IA,50021-3911,(515) 289-5300,,,X,X
 SYSCO - JACKSONVILL,1501 LEWIS INDUSTRIAL DR,Jacksonville,FL,32254-1660,(904) 786-2600,X,X,X,X
 SYSCO - LAS VEGAS  ,6201 E CENTENNIAL PKWY,Las Vegas,NV,89115-1775,(702) 632-1800,X,X,,
 SYSCO - LOS ANGELES,20701 CURRIER RD,Walnut,CA,91789-2904,(909) 595-9595,,X,X,X
 SYSCO - LOUISVILLE ,7705 NATIONAL TPKE,Louisville,KY,40214-4803, (502) 364-4300,X,X,X,X
 SYSCO - METRO NEW Y,20 THEODORE CONRAD DR,Jersey City,NJ,07305-4614,(201) 433-2000,X,,,X
 SYSCO - MINNESOTA  ,2400 COUNTY ROAD J,Saint Paul,MN,55112-4503,(763) 785-9000,,,X,X
 SYSCO - NASHVILLE  ,1 HERMITAGE PLZ,Nashville,TN,37209-1002,(615) 350-7100,X,X,X,X
 SYSCO - NEW ORLEANS,1451 RIVER OAKS RD W,Harahan,LA,70123-2176,(504) 731-1015,X,X,,
 SYSCO - NORTH TEXAS,800 TRINITY DR,Lewisville,TX,75056-5297,(469) 384-6000,X,X,,
 SYSCO - NORTHERN NE,55 THOMAS DR,Westbrook,ME,04092-3825,(207) 871-0700,,X,X,X
 SYSCO - OKLAHOMA   ,1350 W TECUMSEH RD,Norman,OK,73069-8200,(405) 717-2700,X,X,,
 SYSCO - PHILADELPHI,666 PACKER AVE,Philadelphia,PA,19148-5304,(215) 463-8200,,X,,X
 SYSCO - PITTSBURGH ,ONE WHITNEY DR,Harmony,PA,16037,(724) 452-2100,,,X,
 SYSCO - RALEIGH    ,1032 BAUGH RD,Selma,NC,27576-9105,(919) 755-2455,,,X,
 SYSCO - RIVERSIDE  ,15750 MERIDIAN PKWY,Riverside,CA,92518-3001,(951) 601-5300,X,,X,
 SYSCO - SACRAMENTO ,7062 PACIFIC AVE,Pleasant Grove,CA,95668-9731,(916) 569-7000,,,X,
 SYSCO - SAN DIEGO  ,12180 KIRKHAM RD,Poway,CA,92064-6879,(858) 513-7300,X,X,X,
 SYSCO - SEATTLE    ,22820 54TH AVE S,Kent,WA,98032-1813,(206) 622-2261,X,X,,
 SYSCO - SOUTH FLORIDA,12500 NW 112TH AVE,Medley,FL,33178-1055,(305) 651-5421,X,X,X,X
 SYSCO - SOUTHEAST FLORIDA,1999 DR MARTIN LUTHER KING JR BLVD,Riviera Beach,FL,33404-7005,(561) 842-1999,X,X,X,X
 SYSCO - SYRACUSE   ,2508 173 Route N,Warners,NY,13164-0001,(315) 672-7000,,,X,X
 SYSCO - VENTURA    ,3100 STURGIS RD,Oxnard,CA,93030-7276,(877) 205-9800,X,X,X,X
 SYSCO - VIRGINIA   ,5081 S VALLEY PIKE,Harrisonburg,VA,22801-3932,(540) 434-0761,X,,X,X
 SYSCO - WEST COAST FLORIDA,3000 69TH ST E,Palmetto,FL,34221-8440,(941) 721-1450,X,,X,X